{
"type": "FeatureCollection",
"name": "counties",
"crs": { "type": "name", "properties": { "name": "urn:ogc:def:crs:OGC:1.3:CRS84" } },
"features": [
{ "type": "Feature", "properties": { "county": "Monterey" }, "geometry": { "type": "Polygon", "coordinates": [ [ [ -121.49475, 36.222099 ], [ -121.496352, 36.222225 ], [ -121.496741, 36.220842 ], [ -121.499062, 36.22065 ], [ -121.500351, 36.21904 ], [ -121.499949, 36.217758 ], [ -121.498659, 36.217125 ], [ -121.500022, 36.216604 ], [ -121.498285, 36.216412 ], [ -121.498039, 36.217619 ], [ -121.499041, 36.218732 ], [ -121.497639, 36.219337 ], [ -121.494938, 36.218739 ], [ -121.492723, 36.216676 ], [ -121.494441, 36.216464 ], [ -121.49577, 36.217299 ], [ -121.494603, 36.214751 ], [ -121.488336, 36.214785 ], [ -121.495118, 36.214197 ], [ -121.497473, 36.213221 ], [ -121.494711, 36.212576 ], [ -121.492669, 36.21102 ], [ -121.493311, 36.209185 ], [ -121.490351, 36.207873 ], [ -121.49016, 36.205624 ], [ -121.491458, 36.203951 ], [ -121.489182, 36.203727 ], [ -121.488501, 36.202128 ], [ -121.489883, 36.200341 ], [ -121.4901, 36.197587 ], [ -121.491808, 36.195522 ], [ -121.491286, 36.193983 ], [ -121.493346, 36.193045 ], [ -121.494253, 36.190932 ], [ -121.491833, 36.189833 ], [ -121.493474, 36.188743 ], [ -121.492083, 36.187159 ], [ -121.493625, 36.185464 ], [ -121.492847, 36.184234 ], [ -121.493367, 36.183217 ], [ -121.491952, 36.183375 ], [ -121.491449, 36.182442 ], [ -121.492309, 36.180986 ], [ -121.490105, 36.181128 ], [ -121.490198, 36.180311 ], [ -121.488351, 36.179263 ], [ -121.490193, 36.178937 ], [ -121.490642, 36.178145 ], [ -121.489998, 36.176832 ], [ -121.491955, 36.175816 ], [ -121.491929, 36.174362 ], [ -121.493392, 36.172622 ], [ -121.495046, 36.171979 ], [ -121.494589, 36.15895 ], [ -121.492268, 36.155659 ], [ -121.490314, 36.154373 ], [ -121.489384, 36.15083 ], [ -121.486846, 36.149717 ], [ -121.485516, 36.150032 ], [ -121.4884, 36.148405 ], [ -121.491642, 36.148769 ], [ -121.490801, 36.147092 ], [ -121.488679, 36.146705 ], [ -121.489077, 36.14617 ], [ -121.494034, 36.146545 ], [ -121.496885, 36.147603 ], [ -121.49562, 36.146224 ], [ -121.490634, 36.144619 ], [ -121.488495, 36.141819 ], [ -121.488118, 36.140533 ], [ -121.490063, 36.142202 ], [ -121.493855, 36.143113 ], [ -121.491507, 36.139935 ], [ -121.486272, 36.138511 ], [ -121.484648, 36.137043 ], [ -121.480333, 36.136718 ], [ -121.479512, 36.135664 ], [ -121.477383, 36.135022 ], [ -121.478026, 36.132915 ], [ -121.471879, 36.128049 ], [ -121.470608, 36.123152 ], [ -121.469747, 36.121534 ], [ -121.4682, 36.120989 ], [ -121.467199, 36.118623 ], [ -121.462975, 36.116779 ], [ -121.463337, 36.114424 ], [ -121.461714, 36.112177 ], [ -121.501011, 36.112702 ], [ -121.500954, 36.111686 ], [ -121.595108, 36.111261 ], [ -121.595325, 36.09668 ], [ -121.577286, 36.096899 ], [ -121.578007, 36.067652 ], [ -121.542982, 36.067748 ], [ -121.54268, 36.053863 ], [ -121.5259, 36.053714 ], [ -121.525652, 36.007687 ], [ -121.523319, 36.006992 ], [ -121.521862, 36.004929 ], [ -121.512989, 36.005182 ], [ -121.505523, 36.000194 ], [ -121.49966, 35.990633 ], [ -121.498552, 35.986619 ], [ -121.494286, 35.98203 ], [ -121.491815, 35.973233 ], [ -121.489345, 35.970118 ], [ -121.489813, 35.967887 ], [ -121.487733, 35.964014 ], [ -121.487655, 35.960206 ], [ -121.485315, 35.955323 ], [ -121.485367, 35.948609 ], [ -121.483601, 35.947367 ], [ -121.483365, 35.945894 ], [ -121.482091, 35.945389 ], [ -121.483053, 35.942547 ], [ -121.480298, 35.939517 ], [ -121.480272, 35.937159 ], [ -121.479232, 35.93596 ], [ -121.479519, 35.934507 ], [ -121.477674, 35.933182 ], [ -121.478765, 35.932529 ], [ -121.478869, 35.930677 ], [ -121.477024, 35.928593 ], [ -121.474607, 35.928088 ], [ -121.47167, 35.926447 ], [ -121.471332, 35.925478 ], [ -121.47128, 35.924068 ], [ -121.473723, 35.923226 ], [ -121.475386, 35.921374 ], [ -121.476114, 35.921985 ], [ -121.480428, 35.921795 ], [ -121.480636, 35.919712 ], [ -121.479674, 35.91847 ], [ -121.476218, 35.918575 ], [ -121.474945, 35.917333 ], [ -121.475412, 35.914408 ], [ -121.472736, 35.912556 ], [ -121.472242, 35.909904 ], [ -121.468708, 35.908957 ], [ -121.46593, 35.904642 ], [ -121.467904, 35.900644 ], [ -121.467722, 35.899507 ], [ -121.463227, 35.896602 ], [ -121.463644, 35.891741 ], [ -121.46593, 35.890099 ], [ -121.468164, 35.890415 ], [ -121.469593, 35.889257 ], [ -121.468268, 35.886121 ], [ -121.464501, 35.886079 ], [ -121.464319, 35.884879 ], [ -121.460579, 35.881301 ], [ -121.455016, 35.879677 ], [ -121.45367, 35.877807 ], [ -121.456242, 35.877071 ], [ -121.456268, 35.874166 ], [ -121.455385, 35.873408 ], [ -121.45367, 35.87303 ], [ -121.450346, 35.874587 ], [ -121.449203, 35.87364 ], [ -121.448684, 35.870988 ], [ -121.443489, 35.868631 ], [ -121.441619, 35.866105 ], [ -121.434713, 35.863917 ], [ -121.427441, 35.858276 ], [ -121.415937, 35.855351 ], [ -121.414613, 35.853877 ], [ -121.414302, 35.851836 ], [ -121.412692, 35.851268 ], [ -121.410096, 35.847626 ], [ -121.408382, 35.843796 ], [ -121.405396, 35.841628 ], [ -121.404048, 35.838743 ], [ -121.397636, 35.833188 ], [ -121.394365, 35.826937 ], [ -121.388449, 35.821087 ], [ -121.376536, 35.814583 ], [ -121.374511, 35.810753 ], [ -121.369929, 35.809882 ], [ -121.367115, 35.807532 ], [ -121.364079, 35.807217 ], [ -121.352453, 35.798735 ], [ -121.34978, 35.795193 ], [ -121.399713, 35.795246 ], [ -121.438176, 35.796655 ], [ -121.450627, 35.809784 ], [ -121.456097, 35.817713 ], [ -121.481606, 35.829354 ], [ -121.501047, 35.842745 ], [ -121.519192, 35.8634 ], [ -121.525467, 35.874963 ], [ -121.532011, 35.884798 ], [ -121.541828, 35.90166 ], [ -121.554917, 35.92836 ], [ -121.561461, 35.943818 ], [ -121.569642, 35.949438 ], [ -121.589277, 35.959274 ], [ -121.620365, 35.969109 ], [ -121.631818, 35.978945 ], [ -121.64818, 35.998617 ], [ -121.657997, 36.021098 ], [ -121.674359, 36.064661 ], [ -121.708718, 36.1026 ], [ -121.727812, 36.129009 ], [ -121.731307, 36.130701 ], [ -121.73811, 36.135778 ], [ -121.747331, 36.145993 ], [ -121.751064, 36.147446 ], [ -121.761199, 36.155719 ], [ -121.770693, 36.162014 ], [ -121.776718, 36.163555 ], [ -121.787967, 36.168468 ], [ -121.79303, 36.171226 ], [ -121.802354, 36.1783 ], [ -121.81164, 36.180985 ], [ -121.831681, 36.184595 ], [ -121.846404, 36.190342 ], [ -121.850153, 36.19234 ], [ -121.855166, 36.196524 ], [ -121.880193, 36.210314 ], [ -121.889333, 36.218834 ], [ -121.893521, 36.224291 ], [ -121.899477, 36.234991 ], [ -121.901164, 36.239653 ], [ -121.905699, 36.243022 ], [ -121.911267, 36.248756 ], [ -121.916304, 36.251478 ], [ -121.920361, 36.255052 ], [ -121.93066, 36.259557 ], [ -121.944202, 36.269598 ], [ -121.952833, 36.278469 ], [ -121.959053, 36.287108 ], [ -121.961887, 36.293324 ], [ -121.964613, 36.306981 ], [ -121.964222, 36.315438 ], [ -121.962873, 36.322733 ], [ -121.967364, 36.334168 ], [ -121.968872, 36.340759 ], [ -121.968915, 36.346306 ], [ -121.971877, 36.357831 ], [ -121.97168, 36.369806 ], [ -121.972286, 36.372848 ], [ -121.971808, 36.378562 ], [ -121.970391, 36.383368 ], [ -121.975638, 36.39257 ], [ -121.977246, 36.40013 ], [ -121.976847, 36.402245 ], [ -121.980257, 36.410893 ], [ -121.981428, 36.42087 ], [ -121.987399, 36.426613 ], [ -121.992921, 36.433398 ], [ -121.99793, 36.443272 ], [ -122.000836, 36.455679 ], [ -121.999472, 36.466451 ], [ -122.001068, 36.468245 ], [ -122.005233, 36.470516 ], [ -122.008971, 36.475332 ], [ -122.013333, 36.483895 ], [ -122.018313, 36.499962 ], [ -122.021998, 36.508908 ], [ -122.023054, 36.515816 ], [ -122.022707, 36.522227 ], [ -122.02052, 36.531916 ], [ -122.017455, 36.537405 ], [ -122.017982, 36.538686 ], [ -122.029033, 36.5485 ], [ -122.037459, 36.560381 ], [ -122.041148, 36.568211 ], [ -122.04405, 36.578249 ], [ -122.044148, 36.591354 ], [ -122.042748, 36.596627 ], [ -122.040733, 36.60012 ], [ -122.034248, 36.609673 ], [ -122.023636, 36.620443 ], [ -122.020127, 36.622798 ], [ -122.020406, 36.624959 ], [ -122.019351, 36.627761 ], [ -122.014173, 36.636682 ], [ -122.003487, 36.646399 ], [ -122.001124, 36.647704 ], [ -122.051878, 36.8196 ], [ -122.001071, 36.824192 ], [ -121.876075, 36.838973 ], [ -121.81467, 36.849517 ], [ -121.80998, 36.850805 ], [ -121.800938, 36.857387 ], [ -121.800514, 36.860398 ], [ -121.803349, 36.866741 ], [ -121.803319, 36.868536 ], [ -121.797358, 36.873694 ], [ -121.793663, 36.879671 ], [ -121.789934, 36.881792 ], [ -121.787014, 36.88497 ], [ -121.784995, 36.885724 ], [ -121.78327, 36.885303 ], [ -121.783464, 36.88582 ], [ -121.780149, 36.883804 ], [ -121.777456, 36.883212 ], [ -121.772898, 36.883621 ], [ -121.769425, 36.885137 ], [ -121.765059, 36.88827 ], [ -121.764097, 36.89159 ], [ -121.760462, 36.89445 ], [ -121.757291, 36.900308 ], [ -121.745288, 36.909341 ], [ -121.738776, 36.908428 ], [ -121.734844, 36.908742 ], [ -121.728381, 36.911415 ], [ -121.727094, 36.913902 ], [ -121.725594, 36.914345 ], [ -121.721825, 36.913032 ], [ -121.718095, 36.910165 ], [ -121.71467, 36.908811 ], [ -121.712522, 36.910762 ], [ -121.709998, 36.915304 ], [ -121.706809, 36.915128 ], [ -121.699956, 36.919683 ], [ -121.698476, 36.918546 ], [ -121.698461, 36.916738 ], [ -121.700961, 36.91368 ], [ -121.706795, 36.911196 ], [ -121.705529, 36.909503 ], [ -121.702324, 36.908175 ], [ -121.699105, 36.911103 ], [ -121.697441, 36.911607 ], [ -121.694695, 36.910005 ], [ -121.6863, 36.907851 ], [ -121.680621, 36.903285 ], [ -121.677387, 36.904667 ], [ -121.672901, 36.908528 ], [ -121.670159, 36.909406 ], [ -121.66731, 36.912214 ], [ -121.661784, 36.914138 ], [ -121.657729, 36.913774 ], [ -121.654255, 36.912188 ], [ -121.652291, 36.909519 ], [ -121.653699, 36.90378 ], [ -121.652908, 36.901728 ], [ -121.650046, 36.900218 ], [ -121.647855, 36.9027 ], [ -121.646034, 36.902327 ], [ -121.645449, 36.897934 ], [ -121.645997, 36.895555 ], [ -121.645571, 36.894141 ], [ -121.644001, 36.893996 ], [ -121.641314, 36.88025 ], [ -121.642565, 36.8737 ], [ -121.622089, 36.846203 ], [ -121.597698, 36.83735 ], [ -121.504011, 36.757205 ], [ -121.502427, 36.7602 ], [ -121.497417, 36.760397 ], [ -121.492593, 36.763311 ], [ -121.491188, 36.762741 ], [ -121.481523, 36.765447 ], [ -121.479276, 36.761078 ], [ -121.477221, 36.760655 ], [ -121.474368, 36.756672 ], [ -121.476663, 36.753415 ], [ -121.475651, 36.74921 ], [ -121.474202, 36.749274 ], [ -121.47204, 36.745693 ], [ -121.468166, 36.745069 ], [ -121.466802, 36.745648 ], [ -121.465772, 36.743565 ], [ -121.462856, 36.744082 ], [ -121.461749, 36.74209 ], [ -121.460117, 36.74115 ], [ -121.460168, 36.737261 ], [ -121.457389, 36.736758 ], [ -121.459661, 36.735522 ], [ -121.459219, 36.734273 ], [ -121.454567, 36.731295 ], [ -121.454674, 36.730003 ], [ -121.452646, 36.729209 ], [ -121.452498, 36.725944 ], [ -121.45134, 36.724793 ], [ -121.453084, 36.723045 ], [ -121.453072, 36.721198 ], [ -121.455871, 36.721378 ], [ -121.461285, 36.717668 ], [ -121.462625, 36.718341 ], [ -121.464121, 36.717574 ], [ -121.465792, 36.718141 ], [ -121.469054, 36.716939 ], [ -121.474382, 36.716732 ], [ -121.476806, 36.715259 ], [ -121.483368, 36.715499 ], [ -121.484508, 36.713062 ], [ -121.483352, 36.710515 ], [ -121.483639, 36.709235 ], [ -121.482332, 36.709634 ], [ -121.480486, 36.70654 ], [ -121.48077, 36.705098 ], [ -121.481708, 36.704594 ], [ -121.478909, 36.702988 ], [ -121.47748, 36.703018 ], [ -121.476676, 36.69996 ], [ -121.474907, 36.699052 ], [ -121.475675, 36.698182 ], [ -121.472825, 36.696889 ], [ -121.473158, 36.695444 ], [ -121.472122, 36.694936 ], [ -121.471557, 36.692345 ], [ -121.469192, 36.690472 ], [ -121.468379, 36.686505 ], [ -121.469023, 36.685434 ], [ -121.465429, 36.684727 ], [ -121.462975, 36.685183 ], [ -121.460956, 36.686687 ], [ -121.458962, 36.68572 ], [ -121.457102, 36.682128 ], [ -121.455321, 36.681818 ], [ -121.453738, 36.679931 ], [ -121.451499, 36.679938 ], [ -121.44953, 36.678761 ], [ -121.446113, 36.673772 ], [ -121.444333, 36.673148 ], [ -121.441159, 36.673982 ], [ -121.439781, 36.675554 ], [ -121.437914, 36.675593 ], [ -121.435895, 36.677369 ], [ -121.431571, 36.678728 ], [ -121.423859, 36.674335 ], [ -121.422219, 36.674428 ], [ -121.419875, 36.673089 ], [ -121.415535, 36.673058 ], [ -121.413362, 36.668115 ], [ -121.411778, 36.66647 ], [ -121.411775, 36.664266 ], [ -121.409234, 36.661162 ], [ -121.409823, 36.659964 ], [ -121.4093, 36.658329 ], [ -121.408346, 36.656659 ], [ -121.406993, 36.656035 ], [ -121.401946, 36.655424 ], [ -121.398911, 36.657028 ], [ -121.396627, 36.65689 ], [ -121.39586, 36.655429 ], [ -121.393862, 36.654865 ], [ -121.391137, 36.654655 ], [ -121.390029, 36.655614 ], [ -121.388367, 36.654632 ], [ -121.385524, 36.654803 ], [ -121.383584, 36.653269 ], [ -121.380721, 36.654031 ], [ -121.378334, 36.652861 ], [ -121.373423, 36.655466 ], [ -121.366248, 36.65661 ], [ -121.359509, 36.652809 ], [ -121.356399, 36.650124 ], [ -121.353172, 36.649457 ], [ -121.352969, 36.647873 ], [ -121.350092, 36.648357 ], [ -121.350671, 36.646171 ], [ -121.34947, 36.643301 ], [ -121.34659, 36.643152 ], [ -121.345736, 36.641358 ], [ -121.342314, 36.639523 ], [ -121.341624, 36.638338 ], [ -121.34348, 36.635415 ], [ -121.34161, 36.633307 ], [ -121.342089, 36.631354 ], [ -121.3384, 36.628393 ], [ -121.335827, 36.62496 ], [ -121.335784, 36.62375 ], [ -121.332574, 36.620603 ], [ -121.330331, 36.620046 ], [ -121.323099, 36.612528 ], [ -121.318373, 36.610026 ], [ -121.318405, 36.608244 ], [ -121.319669, 36.606528 ], [ -121.318711, 36.604854 ], [ -121.322098, 36.604132 ], [ -121.323781, 36.602367 ], [ -121.324998, 36.59844 ], [ -121.325312, 36.592526 ], [ -121.324225, 36.588436 ], [ -121.32735, 36.585886 ], [ -121.327233, 36.584177 ], [ -121.325489, 36.583944 ], [ -121.324938, 36.582453 ], [ -121.326228, 36.580596 ], [ -121.32499, 36.580194 ], [ -121.323523, 36.577554 ], [ -121.326124, 36.576404 ], [ -121.331394, 36.57623 ], [ -121.33392, 36.574404 ], [ -121.333478, 36.571679 ], [ -121.331126, 36.570002 ], [ -121.331635, 36.565922 ], [ -121.330649, 36.563733 ], [ -121.332016, 36.56216 ], [ -121.328683, 36.561125 ], [ -121.329756, 36.558007 ], [ -121.329142, 36.555443 ], [ -121.325988, 36.553503 ], [ -121.32065, 36.552553 ], [ -121.316495, 36.549514 ], [ -121.313476, 36.549917 ], [ -121.310042, 36.545901 ], [ -121.307945, 36.545567 ], [ -121.307867, 36.543327 ], [ -121.305145, 36.540744 ], [ -121.30156, 36.539243 ], [ -121.301051, 36.537431 ], [ -121.298709, 36.534663 ], [ -121.298506, 36.533056 ], [ -121.296772, 36.532312 ], [ -121.297118, 36.530261 ], [ -121.295362, 36.527129 ], [ -121.296889, 36.525989 ], [ -121.297194, 36.524333 ], [ -121.300489, 36.522805 ], [ -121.300613, 36.521553 ], [ -121.303246, 36.520129 ], [ -121.30323, 36.51814 ], [ -121.307189, 36.516812 ], [ -121.306762, 36.512174 ], [ -121.308372, 36.510329 ], [ -121.310647, 36.509274 ], [ -121.309783, 36.506214 ], [ -121.311838, 36.505098 ], [ -121.311788, 36.502736 ], [ -121.308444, 36.499341 ], [ -121.305942, 36.50222 ], [ -121.304499, 36.502457 ], [ -121.300732, 36.505798 ], [ -121.297146, 36.503936 ], [ -121.294056, 36.506235 ], [ -121.287221, 36.504763 ], [ -121.284963, 36.505697 ], [ -121.284087, 36.503928 ], [ -121.281993, 36.502706 ], [ -121.27847, 36.502391 ], [ -121.273493, 36.503328 ], [ -121.268959, 36.501969 ], [ -121.266479, 36.502373 ], [ -121.265197, 36.50368 ], [ -121.262646, 36.503472 ], [ -121.259599, 36.504464 ], [ -121.254882, 36.503511 ], [ -121.252187, 36.505586 ], [ -121.249567, 36.504819 ], [ -121.247218, 36.506871 ], [ -121.244091, 36.506911 ], [ -121.242923, 36.505584 ], [ -121.239295, 36.504782 ], [ -121.239526, 36.503434 ], [ -121.237289, 36.499965 ], [ -121.237901, 36.49949 ], [ -121.236865, 36.497623 ], [ -121.234582, 36.496177 ], [ -121.232923, 36.493127 ], [ -121.230821, 36.491721 ], [ -121.232578, 36.489046 ], [ -121.230817, 36.488139 ], [ -121.230301, 36.486262 ], [ -121.228108, 36.484599 ], [ -121.228998, 36.482152 ], [ -121.228003, 36.480454 ], [ -121.230472, 36.478557 ], [ -121.229511, 36.475277 ], [ -121.225934, 36.472168 ], [ -121.223277, 36.47247 ], [ -121.2224, 36.470807 ], [ -121.221975, 36.46566 ], [ -121.221068, 36.464099 ], [ -121.221837, 36.46245 ], [ -121.221873, 36.456527 ], [ -121.226813, 36.448143 ], [ -121.226247, 36.446747 ], [ -121.224285, 36.445561 ], [ -121.222049, 36.441645 ], [ -121.227834, 36.43439 ], [ -121.229277, 36.429868 ], [ -121.22859, 36.427563 ], [ -121.230857, 36.425205 ], [ -121.240653, 36.423233 ], [ -121.251997, 36.416749 ], [ -121.263801, 36.41391 ], [ -121.264477, 36.4154 ], [ -121.266951, 36.415941 ], [ -121.278067, 36.415933 ], [ -121.260293, 36.404551 ], [ -121.256397, 36.401243 ], [ -121.257034, 36.400621 ], [ -121.26132, 36.404347 ], [ -121.264228, 36.405591 ], [ -121.266086, 36.404754 ], [ -121.266675, 36.40619 ], [ -121.270595, 36.406406 ], [ -121.281339, 36.404782 ], [ -121.292331, 36.406888 ], [ -121.30099, 36.406834 ], [ -121.308841, 36.408685 ], [ -121.312815, 36.4082 ], [ -121.319415, 36.411382 ], [ -121.311902, 36.411006 ], [ -121.311835, 36.423338 ], [ -121.311653, 36.42386 ], [ -121.309771, 36.423525 ], [ -121.30981, 36.425605 ], [ -121.312978, 36.426212 ], [ -121.312938, 36.428241 ], [ -121.311847, 36.429391 ], [ -121.311856, 36.435598 ], [ -121.31577, 36.435751 ], [ -121.317027, 36.442429 ], [ -121.325146, 36.44207 ], [ -121.324037, 36.445147 ], [ -121.333581, 36.445174 ], [ -121.333654, 36.429723 ], [ -121.336369, 36.431411 ], [ -121.337115, 36.431493 ], [ -121.336915, 36.430906 ], [ -121.335201, 36.428636 ], [ -121.327048, 36.423178 ], [ -121.322327, 36.417946 ], [ -121.317408, 36.404046 ], [ -121.317946, 36.403017 ], [ -121.327744, 36.397618 ], [ -121.333115, 36.395398 ], [ -121.334056, 36.393678 ], [ -121.320507, 36.360179 ], [ -121.320547, 36.34874 ], [ -121.311217, 36.315036 ], [ -121.311665, 36.304534 ], [ -121.313167, 36.301156 ], [ -121.312939, 36.298221 ], [ -121.317684, 36.289857 ], [ -121.318273, 36.287501 ], [ -121.320316, 36.285355 ], [ -121.32086, 36.281981 ], [ -121.332067, 36.277968 ], [ -121.333019, 36.276673 ], [ -121.333927, 36.271497 ], [ -121.335176, 36.270155 ], [ -121.336907, 36.26987 ], [ -121.340968, 36.27121 ], [ -121.348155, 36.271887 ], [ -121.36062, 36.26583 ], [ -121.368095, 36.266162 ], [ -121.371949, 36.267703 ], [ -121.378311, 36.267632 ], [ -121.38151, 36.26942 ], [ -121.395554, 36.27178 ], [ -121.402783, 36.271742 ], [ -121.406144, 36.268393 ], [ -121.414919, 36.263666 ], [ -121.421152, 36.257875 ], [ -121.428697, 36.257587 ], [ -121.430478, 36.256801 ], [ -121.432248, 36.253923 ], [ -121.430858, 36.251279 ], [ -121.432248, 36.249077 ], [ -121.432316, 36.243339 ], [ -121.434462, 36.240652 ], [ -121.441042, 36.242414 ], [ -121.443994, 36.241133 ], [ -121.446038, 36.238124 ], [ -121.447797, 36.238074 ], [ -121.452524, 36.235016 ], [ -121.458953, 36.232235 ], [ -121.463572, 36.231731 ], [ -121.466684, 36.232156 ], [ -121.467741, 36.23292 ], [ -121.468368, 36.234939 ], [ -121.473464, 36.236479 ], [ -121.477095, 36.235394 ], [ -121.480682, 36.23615 ], [ -121.487752, 36.234236 ], [ -121.489624, 36.234948 ], [ -121.492096, 36.234667 ], [ -121.491846, 36.231812 ], [ -121.495135, 36.230754 ], [ -121.495224, 36.229678 ], [ -121.492389, 36.228209 ], [ -121.49154, 36.226646 ], [ -121.493188, 36.22524 ], [ -121.497923, 36.224948 ], [ -121.498158, 36.224389 ], [ -121.498224, 36.223343 ], [ -121.49475, 36.222099 ] ] ] } },
{ "type": "Feature", "properties": { "county": null }, "geometry": { "type": "Polygon", "coordinates": [ [ [ -122.04397, 37.20105 ], [ -122.04512, 37.20149 ], [ -122.047548, 37.204936 ], [ -122.054608, 37.210009 ], [ -122.055087, 37.212497 ], [ -122.05939, 37.212985 ], [ -122.062775, 37.210365 ], [ -122.065933, 37.210413 ], [ -122.07001, 37.216672 ], [ -122.073854, 37.219331 ], [ -122.076616, 37.220194 ], [ -122.078774, 37.222974 ], [ -122.08058, 37.22337 ], [ -122.08435, 37.22247 ], [ -122.08981, 37.22327 ], [ -122.092667, 37.22544 ], [ -122.093369, 37.22924 ], [ -122.09951, 37.2332 ], [ -122.10423, 37.23427 ], [ -122.10557, 37.24074 ], [ -122.121638, 37.25856 ], [ -122.12393, 37.25972 ], [ -122.12839, 37.25922 ], [ -122.13166, 37.26093 ], [ -122.13431, 37.26291 ], [ -122.13585, 37.26574 ], [ -122.14012, 37.26894 ], [ -122.14415, 37.27021 ], [ -122.148362, 37.275451 ], [ -122.150539, 37.275883 ], [ -122.14933, 37.27753 ], [ -122.14869, 37.281 ], [ -122.151119, 37.283523 ], [ -122.15339, 37.28971 ], [ -122.158125, 37.292639 ], [ -122.161193, 37.293001 ], [ -122.166838, 37.295237 ], [ -122.165427, 37.296161 ], [ -122.165138, 37.297992 ], [ -122.162727, 37.300731 ], [ -122.163627, 37.301479 ], [ -122.16207, 37.304233 ], [ -122.166584, 37.305617 ], [ -122.168886, 37.309985 ], [ -122.171178, 37.312118 ], [ -122.175817, 37.312749 ], [ -122.178963, 37.311755 ], [ -122.181755, 37.309566 ], [ -122.183846, 37.310039 ], [ -122.18557, 37.31167 ], [ -122.186597, 37.315548 ], [ -122.190131, 37.31776 ], [ -122.193062, 37.318277 ], [ -122.186516, 37.322031 ], [ -122.183038, 37.327314 ], [ -122.181237, 37.325969 ], [ -122.179631, 37.326528 ], [ -122.178546, 37.325158 ], [ -122.175075, 37.325741 ], [ -122.182844, 37.33297 ], [ -122.185954, 37.338701 ], [ -122.194164, 37.345668 ], [ -122.195864, 37.348162 ], [ -122.196064, 37.35131 ], [ -122.199843, 37.355618 ], [ -122.202467, 37.360272 ], [ -122.202653, 37.363046 ], [ -122.20149, 37.365783 ], [ -122.200706, 37.371964 ], [ -122.199357, 37.372618 ], [ -122.199157, 37.374717 ], [ -122.196901, 37.376544 ], [ -122.19372, 37.382253 ], [ -122.190505, 37.385253 ], [ -122.191125, 37.388148 ], [ -122.190319, 37.389121 ], [ -122.190567, 37.390528 ], [ -122.189575, 37.39128 ], [ -122.190016, 37.394857 ], [ -122.191848, 37.397187 ], [ -122.19149, 37.398758 ], [ -122.192606, 37.404187 ], [ -122.194445, 37.40761 ], [ -122.194331, 37.408867 ], [ -122.18905, 37.40636 ], [ -122.17558, 37.3933 ], [ -122.167299, 37.391604 ], [ -122.162705, 37.389259 ], [ -122.15435, 37.38701 ], [ -122.152654, 37.385023 ], [ -122.150447, 37.378316 ], [ -122.13954, 37.36783 ], [ -122.13083, 37.36486 ], [ -122.12316, 37.36362 ], [ -122.12125, 37.36238 ], [ -122.11609, 37.35614 ], [ -122.10746, 37.35288 ], [ -122.10243, 37.35609 ], [ -122.10927, 37.36139 ], [ -122.10803, 37.36247 ], [ -122.10866, 37.36382 ], [ -122.10589, 37.36633 ], [ -122.08644, 37.35236 ], [ -122.01407, 37.35209 ], [ -122.01404, 37.35295 ], [ -122.01011, 37.35211 ], [ -121.95452, 37.35228 ], [ -121.95518, 37.35341 ], [ -121.95342, 37.35337 ], [ -121.94383, 37.356683 ], [ -121.932135, 37.351219 ], [ -121.932111, 37.356424 ], [ -121.93477, 37.35679 ], [ -121.933153, 37.358649 ], [ -121.939409, 37.364409 ], [ -121.939983, 37.366082 ], [ -121.94154, 37.36654 ], [ -121.941264, 37.36987 ], [ -121.94356, 37.37322 ], [ -121.94575, 37.37352 ], [ -121.94752, 37.37775 ], [ -121.917116, 37.371727 ], [ -121.909589, 37.36907 ], [ -121.90511, 37.36548 ], [ -121.90178, 37.364029 ], [ -121.904626, 37.360777 ], [ -121.897038, 37.350591 ], [ -121.879492, 37.358929 ], [ -121.876554, 37.362054 ], [ -121.869365, 37.366808 ], [ -121.855465, 37.352735 ], [ -121.835192, 37.362334 ], [ -121.827006, 37.350833 ], [ -121.812175, 37.360885 ], [ -121.808557, 37.357614 ], [ -121.804365, 37.355442 ], [ -121.798337, 37.355631 ], [ -121.795043, 37.354251 ], [ -121.786009, 37.354151 ], [ -121.781222, 37.352722 ], [ -121.777218, 37.354033 ], [ -121.777992, 37.358083 ], [ -121.779245, 37.359463 ], [ -121.777935, 37.360411 ], [ -121.778891, 37.360872 ], [ -121.77927, 37.362813 ], [ -121.781385, 37.365558 ], [ -121.778772, 37.367749 ], [ -121.772059, 37.365827 ], [ -121.773414, 37.366641 ], [ -121.774567, 37.368463 ], [ -121.774366, 37.369634 ], [ -121.775139, 37.369911 ], [ -121.773944, 37.371815 ], [ -121.775245, 37.375388 ], [ -121.777358, 37.376594 ], [ -121.778907, 37.37637 ], [ -121.781134, 37.377452 ], [ -121.783128, 37.377419 ], [ -121.783873, 37.377892 ], [ -121.778938, 37.37839 ], [ -121.775696, 37.377857 ], [ -121.773211, 37.376491 ], [ -121.773474, 37.375381 ], [ -121.771626, 37.374226 ], [ -121.772117, 37.373205 ], [ -121.771506, 37.3723 ], [ -121.769599, 37.371854 ], [ -121.76896, 37.370229 ], [ -121.76752, 37.369319 ], [ -121.767481, 37.368181 ], [ -121.762865, 37.364084 ], [ -121.759594, 37.363136 ], [ -121.753981, 37.363555 ], [ -121.754551, 37.364482 ], [ -121.754103, 37.365454 ], [ -121.756126, 37.366153 ], [ -121.759139, 37.368825 ], [ -121.760199, 37.368759 ], [ -121.759813, 37.369913 ], [ -121.761968, 37.370068 ], [ -121.762496, 37.372095 ], [ -121.764595, 37.373327 ], [ -121.765369, 37.374939 ], [ -121.766682, 37.375308 ], [ -121.768051, 37.378489 ], [ -121.769379, 37.379006 ], [ -121.771952, 37.38299 ], [ -121.775228, 37.384958 ], [ -121.779256, 37.384432 ], [ -121.78287, 37.386752 ], [ -121.784058, 37.395433 ], [ -121.786536, 37.39862 ], [ -121.785847, 37.399334 ], [ -121.786239, 37.400949 ], [ -121.79099, 37.402071 ], [ -121.791975, 37.403516 ], [ -121.791747, 37.404802 ], [ -121.79079, 37.405279 ], [ -121.789014, 37.405354 ], [ -121.785088, 37.403729 ], [ -121.781884, 37.404648 ], [ -121.808338, 37.434374 ], [ -121.81304, 37.43338 ], [ -121.81712, 37.43403 ], [ -121.8199, 37.43548 ], [ -121.81903, 37.43713 ], [ -121.81945, 37.43799 ], [ -121.82568, 37.43993 ], [ -121.82851, 37.43986 ], [ -121.83247, 37.43834 ], [ -121.83492, 37.43852 ], [ -121.83603, 37.44211 ], [ -121.84062, 37.44439 ], [ -121.83915, 37.44764 ], [ -121.84041, 37.44802 ], [ -121.84212, 37.45011 ], [ -121.8408, 37.45014 ], [ -121.83986, 37.45178 ], [ -121.84106, 37.45227 ], [ -121.84138, 37.45415 ], [ -121.84076, 37.45483 ], [ -121.84342, 37.45671 ], [ -121.84219, 37.4585 ], [ -121.84216, 37.45997 ], [ -121.84325, 37.46026 ], [ -121.84361, 37.46208 ], [ -121.8451, 37.46263 ], [ -121.84491, 37.46556 ], [ -121.84657, 37.46623 ], [ -121.8474, 37.47053 ], [ -121.85108, 37.47652 ], [ -121.85158, 37.47952 ], [ -121.8552, 37.48296 ], [ -121.855762, 37.484537 ], [ -121.741281, 37.48394 ], [ -121.689079, 37.482828 ], [ -121.472952, 37.482333 ], [ -121.472975, 37.480676 ], [ -121.474527, 37.479344 ], [ -121.4777, 37.480279 ], [ -121.48341, 37.475423 ], [ -121.486775, 37.475652 ], [ -121.484252, 37.466032 ], [ -121.475033, 37.462054 ], [ -121.473452, 37.460169 ], [ -121.472676, 37.456381 ], [ -121.469554, 37.455743 ], [ -121.468933, 37.453875 ], [ -121.467179, 37.453341 ], [ -121.464687, 37.454483 ], [ -121.462917, 37.451489 ], [ -121.462655, 37.448438 ], [ -121.463476, 37.445692 ], [ -121.462151, 37.442334 ], [ -121.46186, 37.438799 ], [ -121.464951, 37.437034 ], [ -121.470328, 37.43012 ], [ -121.470338, 37.427709 ], [ -121.468858, 37.424994 ], [ -121.472148, 37.424175 ], [ -121.472606, 37.423345 ], [ -121.466251, 37.415034 ], [ -121.463551, 37.415934 ], [ -121.456351, 37.406735 ], [ -121.455651, 37.401035 ], [ -121.458251, 37.398135 ], [ -121.456651, 37.395535 ], [ -121.45155, 37.394635 ], [ -121.450448, 37.392541 ], [ -121.448163, 37.391677 ], [ -121.445245, 37.393346 ], [ -121.442744, 37.392763 ], [ -121.436085, 37.39613 ], [ -121.43155, 37.394235 ], [ -121.42405, 37.393635 ], [ -121.41945, 37.390735 ], [ -121.412549, 37.389435 ], [ -121.412156, 37.387272 ], [ -121.410629, 37.386108 ], [ -121.409075, 37.380672 ], [ -121.411051, 37.378379 ], [ -121.415849, 37.375916 ], [ -121.41929, 37.364445 ], [ -121.4225, 37.363091 ], [ -121.42365, 37.358837 ], [ -121.419409, 37.351989 ], [ -121.42046, 37.350467 ], [ -121.420596, 37.347765 ], [ -121.419821, 37.34654 ], [ -121.42075, 37.344737 ], [ -121.40915, 37.330637 ], [ -121.41115, 37.327537 ], [ -121.410218, 37.325061 ], [ -121.411939, 37.324445 ], [ -121.409398, 37.321464 ], [ -121.40748, 37.313114 ], [ -121.406334, 37.312762 ], [ -121.405753, 37.31099 ], [ -121.407519, 37.309837 ], [ -121.408942, 37.309877 ], [ -121.418366, 37.303275 ], [ -121.42275, 37.299138 ], [ -121.423452, 37.295287 ], [ -121.424666, 37.295138 ], [ -121.426063, 37.295936 ], [ -121.424589, 37.296279 ], [ -121.425767, 37.296336 ], [ -121.431391, 37.294994 ], [ -121.434017, 37.292934 ], [ -121.436816, 37.291971 ], [ -121.44112, 37.293857 ], [ -121.443551, 37.296638 ], [ -121.44965, 37.293939 ], [ -121.448658, 37.2903 ], [ -121.452973, 37.286735 ], [ -121.454009, 37.28405 ], [ -121.458051, 37.284139 ], [ -121.459068, 37.282319 ], [ -121.453966, 37.277184 ], [ -121.454849, 37.263141 ], [ -121.455928, 37.262883 ], [ -121.457255, 37.260943 ], [ -121.45502, 37.25555 ], [ -121.455974, 37.253919 ], [ -121.45575, 37.24944 ], [ -121.45262, 37.246378 ], [ -121.452633, 37.245364 ], [ -121.448145, 37.239494 ], [ -121.448744, 37.237277 ], [ -121.446083, 37.235967 ], [ -121.441746, 37.231127 ], [ -121.436104, 37.229365 ], [ -121.43388, 37.226329 ], [ -121.432872, 37.227343 ], [ -121.430756, 37.227463 ], [ -121.426398, 37.223496 ], [ -121.424223, 37.223166 ], [ -121.421822, 37.22131 ], [ -121.421075, 37.214826 ], [ -121.418369, 37.213211 ], [ -121.416869, 37.211262 ], [ -121.416862, 37.206044 ], [ -121.415657, 37.199649 ], [ -121.412009, 37.195448 ], [ -121.410463, 37.192008 ], [ -121.410209, 37.189596 ], [ -121.411525, 37.185407 ], [ -121.40946, 37.18415 ], [ -121.408794, 37.182505 ], [ -121.408905, 37.180842 ], [ -121.41114, 37.177852 ], [ -121.410076, 37.175757 ], [ -121.410431, 37.174467 ], [ -121.413401, 37.172328 ], [ -121.407727, 37.169006 ], [ -121.407601, 37.163241 ], [ -121.40653, 37.158835 ], [ -121.404636, 37.155989 ], [ -121.401141, 37.15492 ], [ -121.400004, 37.150863 ], [ -121.399019, 37.150135 ], [ -121.397463, 37.150595 ], [ -121.392989, 37.148153 ], [ -121.391131, 37.150747 ], [ -121.386061, 37.151903 ], [ -121.383551, 37.151487 ], [ -121.38163, 37.157138 ], [ -121.383957, 37.160161 ], [ -121.384155, 37.162001 ], [ -121.383245, 37.162988 ], [ -121.384266, 37.166201 ], [ -121.382914, 37.167881 ], [ -121.379654, 37.168006 ], [ -121.376313, 37.172478 ], [ -121.373429, 37.173705 ], [ -121.372209, 37.176962 ], [ -121.365035, 37.179998 ], [ -121.36317, 37.183509 ], [ -121.359558, 37.184453 ], [ -121.35708, 37.18339 ], [ -121.354561, 37.183893 ], [ -121.35176, 37.181951 ], [ -121.347499, 37.180417 ], [ -121.343657, 37.176935 ], [ -121.34306, 37.174669 ], [ -121.338294, 37.173517 ], [ -121.334349, 37.170803 ], [ -121.332548, 37.171277 ], [ -121.328409, 37.16595 ], [ -121.325238, 37.166837 ], [ -121.323233, 37.16643 ], [ -121.32026, 37.167574 ], [ -121.314034, 37.16791 ], [ -121.314066, 37.169401 ], [ -121.312882, 37.170147 ], [ -121.306044, 37.166641 ], [ -121.302619, 37.16816 ], [ -121.300672, 37.166273 ], [ -121.298552, 37.165963 ], [ -121.295586, 37.168905 ], [ -121.29152, 37.170337 ], [ -121.290655, 37.172132 ], [ -121.290959, 37.175427 ], [ -121.287728, 37.177367 ], [ -121.287478, 37.179189 ], [ -121.286063, 37.181139 ], [ -121.284297, 37.180895 ], [ -121.283404, 37.183169 ], [ -121.281107, 37.183603 ], [ -121.277776, 37.179631 ], [ -121.275378, 37.178739 ], [ -121.273101, 37.173325 ], [ -121.269507, 37.171171 ], [ -121.262093, 37.159323 ], [ -121.248763, 37.157661 ], [ -121.243842, 37.15857 ], [ -121.24248, 37.157469 ], [ -121.238495, 37.15777 ], [ -121.236629, 37.156675 ], [ -121.236558, 37.15404 ], [ -121.235495, 37.152898 ], [ -121.235985, 37.149087 ], [ -121.232297, 37.139893 ], [ -121.222863, 37.131337 ], [ -121.223141, 37.128568 ], [ -121.220707, 37.124689 ], [ -121.217339, 37.123042 ], [ -121.221339, 37.116442 ], [ -121.223788, 37.115081 ], [ -121.225159, 37.110898 ], [ -121.226304, 37.109708 ], [ -121.225538, 37.106842 ], [ -121.230526, 37.10477 ], [ -121.229739, 37.099042 ], [ -121.230439, 37.096942 ], [ -121.231975, 37.097125 ], [ -121.233504, 37.095581 ], [ -121.238375, 37.093416 ], [ -121.242618, 37.093063 ], [ -121.243644, 37.090739 ], [ -121.245484, 37.089148 ], [ -121.241977, 37.085128 ], [ -121.240674, 37.085256 ], [ -121.240163, 37.086144 ], [ -121.235493, 37.086234 ], [ -121.224638, 37.078943 ], [ -121.222404, 37.073432 ], [ -121.21955, 37.072546 ], [ -121.215799, 37.069223 ], [ -121.209637, 37.068243 ], [ -121.210337, 37.066044 ], [ -121.208198, 37.061289 ], [ -121.208959, 37.058683 ], [ -121.212591, 37.055068 ], [ -121.218735, 37.057139 ], [ -121.223387, 37.057507 ], [ -121.224518, 37.056237 ], [ -121.223156, 37.05523 ], [ -121.225808, 37.052071 ], [ -121.224507, 37.039743 ], [ -121.236138, 37.036945 ], [ -121.238741, 37.034345 ], [ -121.238971, 37.032593 ], [ -121.240634, 37.031777 ], [ -121.24454, 37.031995 ], [ -121.248647, 37.03368 ], [ -121.245989, 37.025575 ], [ -121.233337, 37.011746 ], [ -121.238186, 37.009254 ], [ -121.236337, 37.008346 ], [ -121.236976, 37.006584 ], [ -121.235504, 37.005771 ], [ -121.235176, 37.002641 ], [ -121.233137, 36.999346 ], [ -121.241517, 36.997381 ], [ -121.242915, 36.994282 ], [ -121.245137, 36.992922 ], [ -121.246568, 36.985228 ], [ -121.243877, 36.980091 ], [ -121.237358, 36.973121 ], [ -121.232128, 36.968892 ], [ -121.229342, 36.967649 ], [ -121.224833, 36.967433 ], [ -121.220775, 36.963628 ], [ -121.215406, 36.961248 ], [ -121.353587, 36.959992 ], [ -121.418246, 36.960549 ], [ -121.434563, 36.973983 ], [ -121.437697, 36.97851 ], [ -121.447346, 36.982955 ], [ -121.449747, 36.986148 ], [ -121.449119, 36.988211 ], [ -121.450607, 36.988944 ], [ -121.456647, 36.986648 ], [ -121.457547, 36.987548 ], [ -121.460046, 36.985748 ], [ -121.463656, 36.984877 ], [ -121.465948, 36.982148 ], [ -121.463561, 36.978294 ], [ -121.467939, 36.976772 ], [ -121.488949, 36.983148 ], [ -121.50175, 36.97165 ], [ -121.504552, 36.967847 ], [ -121.505377, 36.964113 ], [ -121.508145, 36.963649 ], [ -121.509401, 36.960039 ], [ -121.51243, 36.958835 ], [ -121.510279, 36.95647 ], [ -121.510231, 36.954053 ], [ -121.512115, 36.952584 ], [ -121.511692, 36.949266 ], [ -121.513813, 36.945155 ], [ -121.516069, 36.944146 ], [ -121.517106, 36.942357 ], [ -121.519152, 36.941972 ], [ -121.521602, 36.940233 ], [ -121.523591, 36.93709 ], [ -121.526819, 36.935747 ], [ -121.539234, 36.927302 ], [ -121.540874, 36.925152 ], [ -121.53912, 36.922926 ], [ -121.540283, 36.92053 ], [ -121.553493, 36.915199 ], [ -121.558452, 36.910468 ], [ -121.56014, 36.903285 ], [ -121.560259, 36.897121 ], [ -121.562901, 36.896252 ], [ -121.571394, 36.897075 ], [ -121.573807, 36.895532 ], [ -121.575725, 36.893 ], [ -121.581354, 36.899152 ], [ -121.581154, 36.919252 ], [ -121.590154, 36.919252 ], [ -121.590354, 36.926151 ], [ -121.607155, 36.926051 ], [ -121.624755, 36.940451 ], [ -121.624048, 36.938494 ], [ -121.626055, 36.939845 ], [ -121.63046, 36.940544 ], [ -121.631856, 36.939253 ], [ -121.637055, 36.939053 ], [ -121.642256, 36.936351 ], [ -121.641025, 36.932224 ], [ -121.645791, 36.93233 ], [ -121.648856, 36.937251 ], [ -121.653056, 36.941751 ], [ -121.654056, 36.944751 ], [ -121.652271, 36.947628 ], [ -121.653675, 36.947717 ], [ -121.654038, 36.950584 ], [ -121.658357, 36.950551 ], [ -121.663257, 36.951851 ], [ -121.66433, 36.95514 ], [ -121.662857, 36.959151 ], [ -121.664787, 36.963714 ], [ -121.66613, 36.96434 ], [ -121.66993, 36.963641 ], [ -121.672257, 36.964351 ], [ -121.672657, 36.965451 ], [ -121.677235, 36.965547 ], [ -121.678258, 36.96785 ], [ -121.683658, 36.967051 ], [ -121.690158, 36.967351 ], [ -121.693303, 36.96823 ], [ -121.697829, 36.972098 ], [ -121.698428, 36.974984 ], [ -121.696197, 36.979778 ], [ -121.696658, 36.98135 ], [ -121.695258, 36.98275 ], [ -121.695358, 36.98515 ], [ -121.699658, 36.98625 ], [ -121.705244, 36.986245 ], [ -121.705509, 36.98936 ], [ -121.70981, 36.990603 ], [ -121.70986, 36.98976 ], [ -121.7107, 36.98972 ], [ -121.711375, 36.990581 ], [ -121.710405, 36.992341 ], [ -121.710918, 36.993066 ], [ -121.71466, 36.99313 ], [ -121.71709, 36.99407 ], [ -121.717878, 36.995561 ], [ -121.732312, 36.989664 ], [ -121.736385, 36.989367 ], [ -121.738697, 36.989991 ], [ -121.734853, 36.99105 ], [ -121.734184, 36.992766 ], [ -121.731328, 36.992709 ], [ -121.729807, 36.993555 ], [ -121.728346, 36.99682 ], [ -121.729624, 36.997872 ], [ -121.718762, 37.007557 ], [ -121.72265, 37.008924 ], [ -121.726566, 37.012054 ], [ -121.727815, 37.009862 ], [ -121.736186, 37.015342 ], [ -121.731313, 37.022417 ], [ -121.730439, 37.022218 ], [ -121.730814, 37.020324 ], [ -121.72869, 37.019926 ], [ -121.728315, 37.020922 ], [ -121.725771, 37.02065 ], [ -121.72606, 37.02126 ], [ -121.72782, 37.02275 ], [ -121.739765, 37.027684 ], [ -121.74238, 37.03024 ], [ -121.744335, 37.033672 ], [ -121.746361, 37.034749 ], [ -121.75548, 37.04903 ], [ -121.7576, 37.04963 ], [ -121.760678, 37.0476 ], [ -121.76199, 37.04782 ], [ -121.76488, 37.04947 ], [ -121.76328, 37.05072 ], [ -121.76339, 37.05196 ], [ -121.76723, 37.05332 ], [ -121.77526, 37.05298 ], [ -121.77609, 37.05492 ], [ -121.78155, 37.056991 ], [ -121.78211, 37.05848 ], [ -121.78604, 37.06199 ], [ -121.79355, 37.06431 ], [ -121.79676, 37.0638 ], [ -121.80031, 37.06547 ], [ -121.80213, 37.06793 ], [ -121.809122, 37.069319 ], [ -121.810655, 37.070883 ], [ -121.812651, 37.075382 ], [ -121.81719, 37.07788 ], [ -121.81649, 37.08037 ], [ -121.81824, 37.08374 ], [ -121.82359, 37.08597 ], [ -121.82422, 37.08778 ], [ -121.827199, 37.087894 ], [ -121.828044, 37.088668 ], [ -121.83039, 37.0881 ], [ -121.83417, 37.09122 ], [ -121.83825, 37.09169 ], [ -121.83865, 37.09322 ], [ -121.84023, 37.09345 ], [ -121.84096, 37.09444 ], [ -121.84414, 37.09473 ], [ -121.8446, 37.09665 ], [ -121.847377, 37.097236 ], [ -121.849086, 37.098997 ], [ -121.85384, 37.0984 ], [ -121.8566, 37.09935 ], [ -121.861884, 37.099346 ], [ -121.860009, 37.104171 ], [ -121.870066, 37.102247 ], [ -121.884808, 37.107825 ], [ -121.8873, 37.10491 ], [ -121.890867, 37.105256 ], [ -121.89012, 37.10663 ], [ -121.892, 37.10706 ], [ -121.89231, 37.10845 ], [ -121.89351, 37.10798 ], [ -121.89483, 37.10858 ], [ -121.89485, 37.10981 ], [ -121.89632, 37.10965 ], [ -121.90114, 37.11152 ], [ -121.90384, 37.111 ], [ -121.90572, 37.11317 ], [ -121.910685, 37.113295 ], [ -121.92903, 37.12342 ], [ -121.932026, 37.122001 ], [ -121.94196, 37.12639 ], [ -121.953736, 37.12901 ], [ -121.957443, 37.130571 ], [ -121.96365, 37.1335 ], [ -121.97274, 37.14173 ], [ -121.980836, 37.142282 ], [ -121.984061, 37.143734 ], [ -121.985605, 37.143339 ], [ -121.985887, 37.144608 ], [ -121.987152, 37.144819 ], [ -121.988602, 37.143779 ], [ -121.99109, 37.14427 ], [ -121.99416, 37.14985 ], [ -122.000047, 37.154495 ], [ -122.002472, 37.158291 ], [ -122.005838, 37.15828 ], [ -122.006754, 37.159295 ], [ -122.009041, 37.159792 ], [ -122.011587, 37.162035 ], [ -122.01379, 37.16276 ], [ -122.015946, 37.165658 ], [ -122.016995, 37.165069 ], [ -122.021435, 37.166786 ], [ -122.022894, 37.16615 ], [ -122.026174, 37.166854 ], [ -122.025585, 37.169071 ], [ -122.027675, 37.170846 ], [ -122.025668, 37.172605 ], [ -122.025607, 37.173797 ], [ -122.027637, 37.174083 ], [ -122.02653, 37.17611 ], [ -122.028933, 37.176936 ], [ -122.029398, 37.179452 ], [ -122.031935, 37.182297 ], [ -122.03263, 37.18614 ], [ -122.031495, 37.18691 ], [ -122.03199, 37.1884 ], [ -122.03075, 37.18999 ], [ -122.040782, 37.195171 ], [ -122.04397, 37.20105 ] ] ] } },
{ "type": "Feature", "properties": { "county": "Santa Cruz" }, "geometry": { "type": "Polygon", "coordinates": [ [ [ -121.80998, 36.850805 ], [ -121.876075, 36.838973 ], [ -122.001071, 36.824192 ], [ -122.051878, 36.8196 ], [ -122.068317, 36.874953 ], [ -122.076399, 36.910199 ], [ -122.10304, 36.916255 ], [ -122.130569, 36.925338 ], [ -122.172024, 36.942681 ], [ -122.209322, 36.961606 ], [ -122.251082, 36.985833 ], [ -122.261049, 36.993452 ], [ -122.265654, 37.00012 ], [ -122.276375, 37.024834 ], [ -122.290313, 37.03209 ], [ -122.313899, 37.054764 ], [ -122.29941, 37.096356 ], [ -122.289382, 37.113472 ], [ -122.311782, 37.147545 ], [ -122.317682, 37.186945 ], [ -122.288581, 37.186745 ], [ -122.268881, 37.189843 ], [ -122.24266, 37.190035 ], [ -122.242573, 37.215134 ], [ -122.152774, 37.215444 ], [ -122.152974, 37.222444 ], [ -122.15145, 37.229952 ], [ -122.152633, 37.244035 ], [ -122.152278, 37.286055 ], [ -122.151027, 37.283379 ], [ -122.14869, 37.281 ], [ -122.14933, 37.27753 ], [ -122.150539, 37.275883 ], [ -122.148362, 37.275451 ], [ -122.14415, 37.27021 ], [ -122.14012, 37.26894 ], [ -122.13585, 37.26574 ], [ -122.13431, 37.26291 ], [ -122.13166, 37.26093 ], [ -122.12839, 37.25922 ], [ -122.12393, 37.25972 ], [ -122.121638, 37.25856 ], [ -122.10557, 37.24074 ], [ -122.10423, 37.23427 ], [ -122.09951, 37.2332 ], [ -122.093369, 37.22924 ], [ -122.092667, 37.22544 ], [ -122.09158, 37.22459 ], [ -122.08981, 37.22327 ], [ -122.08586, 37.22263 ], [ -122.078986, 37.223093 ], [ -122.076616, 37.220194 ], [ -122.073854, 37.219331 ], [ -122.07001, 37.216672 ], [ -122.065802, 37.210364 ], [ -122.062775, 37.210365 ], [ -122.05939, 37.212985 ], [ -122.055087, 37.212497 ], [ -122.054608, 37.210009 ], [ -122.047548, 37.204936 ], [ -122.04512, 37.20149 ], [ -122.04397, 37.20105 ], [ -122.040782, 37.195171 ], [ -122.03075, 37.18999 ], [ -122.03199, 37.1884 ], [ -122.031495, 37.18691 ], [ -122.03263, 37.18614 ], [ -122.031935, 37.182297 ], [ -122.029398, 37.179452 ], [ -122.028933, 37.176936 ], [ -122.02653, 37.17611 ], [ -122.027637, 37.174083 ], [ -122.025607, 37.173797 ], [ -122.025668, 37.172605 ], [ -122.027675, 37.170846 ], [ -122.025585, 37.169071 ], [ -122.026174, 37.166854 ], [ -122.022894, 37.16615 ], [ -122.021435, 37.166786 ], [ -122.016995, 37.165069 ], [ -122.015946, 37.165658 ], [ -122.01379, 37.16276 ], [ -122.011587, 37.162035 ], [ -122.009041, 37.159792 ], [ -122.006754, 37.159295 ], [ -122.005838, 37.15828 ], [ -122.002472, 37.158291 ], [ -122.000047, 37.154495 ], [ -121.99416, 37.14985 ], [ -121.99109, 37.14427 ], [ -121.988602, 37.143779 ], [ -121.987152, 37.144819 ], [ -121.985887, 37.144608 ], [ -121.985605, 37.143339 ], [ -121.984061, 37.143734 ], [ -121.980836, 37.142282 ], [ -121.97274, 37.14173 ], [ -121.96365, 37.1335 ], [ -121.957443, 37.130571 ], [ -121.953736, 37.12901 ], [ -121.94196, 37.12639 ], [ -121.932026, 37.122001 ], [ -121.92903, 37.12342 ], [ -121.910685, 37.113295 ], [ -121.90572, 37.11317 ], [ -121.90384, 37.111 ], [ -121.90114, 37.11152 ], [ -121.89632, 37.10965 ], [ -121.89485, 37.10981 ], [ -121.89483, 37.10858 ], [ -121.89351, 37.10798 ], [ -121.89231, 37.10845 ], [ -121.892, 37.10706 ], [ -121.89012, 37.10663 ], [ -121.890867, 37.105256 ], [ -121.8873, 37.10491 ], [ -121.884808, 37.107825 ], [ -121.870066, 37.102247 ], [ -121.860009, 37.104171 ], [ -121.861884, 37.099346 ], [ -121.8566, 37.09935 ], [ -121.85384, 37.0984 ], [ -121.849086, 37.098997 ], [ -121.847377, 37.097236 ], [ -121.8446, 37.09665 ], [ -121.84414, 37.09473 ], [ -121.84096, 37.09444 ], [ -121.84023, 37.09345 ], [ -121.83865, 37.09322 ], [ -121.83877, 37.09209 ], [ -121.83803, 37.0916 ], [ -121.83417, 37.09122 ], [ -121.83154, 37.0886 ], [ -121.82418, 37.08776 ], [ -121.82359, 37.08597 ], [ -121.81824, 37.08374 ], [ -121.81649, 37.08037 ], [ -121.81719, 37.07788 ], [ -121.812651, 37.075382 ], [ -121.810655, 37.070883 ], [ -121.809122, 37.069319 ], [ -121.80213, 37.06793 ], [ -121.80031, 37.06547 ], [ -121.79676, 37.0638 ], [ -121.79355, 37.06431 ], [ -121.78604, 37.06199 ], [ -121.78211, 37.05848 ], [ -121.78155, 37.056991 ], [ -121.77609, 37.05492 ], [ -121.77526, 37.05298 ], [ -121.76723, 37.05332 ], [ -121.76339, 37.05196 ], [ -121.76328, 37.05072 ], [ -121.76488, 37.04947 ], [ -121.76199, 37.04782 ], [ -121.760678, 37.0476 ], [ -121.7576, 37.04963 ], [ -121.75548, 37.04903 ], [ -121.746361, 37.034749 ], [ -121.744335, 37.033672 ], [ -121.74238, 37.03024 ], [ -121.739765, 37.027684 ], [ -121.72658, 37.02189 ], [ -121.725771, 37.02065 ], [ -121.728315, 37.020922 ], [ -121.72869, 37.019926 ], [ -121.730814, 37.020324 ], [ -121.730439, 37.022218 ], [ -121.731313, 37.022417 ], [ -121.736186, 37.015342 ], [ -121.727815, 37.009862 ], [ -121.726566, 37.012054 ], [ -121.72265, 37.008924 ], [ -121.718762, 37.007557 ], [ -121.729624, 36.997872 ], [ -121.728346, 36.99682 ], [ -121.729807, 36.993555 ], [ -121.731328, 36.992709 ], [ -121.734184, 36.992766 ], [ -121.734853, 36.99105 ], [ -121.738697, 36.989991 ], [ -121.736385, 36.989367 ], [ -121.732312, 36.989664 ], [ -121.717878, 36.995561 ], [ -121.71709, 36.99407 ], [ -121.71466, 36.99313 ], [ -121.710918, 36.993066 ], [ -121.710405, 36.992341 ], [ -121.711375, 36.990581 ], [ -121.7107, 36.98972 ], [ -121.70986, 36.98976 ], [ -121.70981, 36.990603 ], [ -121.705509, 36.98936 ], [ -121.705244, 36.986245 ], [ -121.699658, 36.98625 ], [ -121.695358, 36.98515 ], [ -121.695258, 36.98275 ], [ -121.696658, 36.98135 ], [ -121.696197, 36.979778 ], [ -121.698428, 36.974984 ], [ -121.697829, 36.972098 ], [ -121.693303, 36.96823 ], [ -121.690158, 36.967351 ], [ -121.683658, 36.967051 ], [ -121.678258, 36.96785 ], [ -121.677235, 36.965547 ], [ -121.672657, 36.965451 ], [ -121.672257, 36.964351 ], [ -121.66993, 36.963641 ], [ -121.66613, 36.96434 ], [ -121.664787, 36.963714 ], [ -121.662857, 36.959151 ], [ -121.66433, 36.95514 ], [ -121.663257, 36.951851 ], [ -121.658357, 36.950551 ], [ -121.654038, 36.950584 ], [ -121.653675, 36.947717 ], [ -121.652271, 36.947628 ], [ -121.654056, 36.944751 ], [ -121.653056, 36.941751 ], [ -121.648856, 36.937251 ], [ -121.645791, 36.93233 ], [ -121.641025, 36.932224 ], [ -121.642256, 36.936351 ], [ -121.637055, 36.939053 ], [ -121.631856, 36.939253 ], [ -121.63046, 36.940544 ], [ -121.626055, 36.939845 ], [ -121.624048, 36.938494 ], [ -121.624755, 36.940451 ], [ -121.607155, 36.926051 ], [ -121.590354, 36.926151 ], [ -121.590154, 36.919252 ], [ -121.581154, 36.919252 ], [ -121.581354, 36.899152 ], [ -121.588854, 36.901252 ], [ -121.607354, 36.899452 ], [ -121.615697, 36.904993 ], [ -121.619761, 36.908911 ], [ -121.621359, 36.908622 ], [ -121.628419, 36.91182 ], [ -121.629489, 36.911681 ], [ -121.633145, 36.906654 ], [ -121.638103, 36.898327 ], [ -121.644367, 36.893877 ], [ -121.645598, 36.89417 ], [ -121.646026, 36.895694 ], [ -121.645449, 36.897934 ], [ -121.646155, 36.902559 ], [ -121.64793, 36.902659 ], [ -121.650046, 36.900218 ], [ -121.652908, 36.901728 ], [ -121.653699, 36.90378 ], [ -121.652159, 36.908055 ], [ -121.652333, 36.909621 ], [ -121.654255, 36.912188 ], [ -121.657904, 36.913814 ], [ -121.661784, 36.914138 ], [ -121.66731, 36.912214 ], [ -121.670159, 36.909406 ], [ -121.672901, 36.908528 ], [ -121.677387, 36.904667 ], [ -121.680621, 36.903285 ], [ -121.6863, 36.907851 ], [ -121.694695, 36.910005 ], [ -121.697441, 36.911607 ], [ -121.699105, 36.911103 ], [ -121.702324, 36.908175 ], [ -121.705529, 36.909503 ], [ -121.706795, 36.911196 ], [ -121.700961, 36.91368 ], [ -121.698461, 36.916738 ], [ -121.698476, 36.918546 ], [ -121.699956, 36.919683 ], [ -121.706809, 36.915128 ], [ -121.709998, 36.915304 ], [ -121.712522, 36.910762 ], [ -121.71467, 36.908811 ], [ -121.718095, 36.910165 ], [ -121.721825, 36.913032 ], [ -121.725594, 36.914345 ], [ -121.727094, 36.913902 ], [ -121.728381, 36.911415 ], [ -121.734844, 36.908742 ], [ -121.738776, 36.908428 ], [ -121.745288, 36.909341 ], [ -121.757291, 36.900308 ], [ -121.760462, 36.89445 ], [ -121.764097, 36.89159 ], [ -121.765059, 36.88827 ], [ -121.769425, 36.885137 ], [ -121.772898, 36.883621 ], [ -121.777456, 36.883212 ], [ -121.780149, 36.883804 ], [ -121.783464, 36.88582 ], [ -121.78327, 36.885303 ], [ -121.784995, 36.885724 ], [ -121.787014, 36.88497 ], [ -121.789934, 36.881792 ], [ -121.793808, 36.879537 ], [ -121.797358, 36.873694 ], [ -121.803319, 36.868536 ], [ -121.803349, 36.866741 ], [ -121.800514, 36.860398 ], [ -121.800651, 36.857949 ], [ -121.801764, 36.856495 ], [ -121.80998, 36.850805 ] ] ] } }
]
}
